COSMOS 2433 (720)       
1 32275U 07052A   25172.05616799 -.00000052  00000+0  00000+0 0  9999
2 32275  65.7750 328.0644 0002267 198.0860 161.9041  2.13104026137368
COSMOS 2432 (719)       
1 32276U 07052B   25169.33028811 -.00000035  00000+0  00000+0 0  9990
2 32276  65.7919 328.2763 0007989 332.6100  41.2626  2.13103100137337
COSMOS 2434 (721)       
1 32393U 07065A   25172.28897715  .00000112  00000+0  00000+0 0  9994
2 32393  64.3159 204.0908 0000632 329.4026 100.5566  2.13101322136086
COSMOS 2436 (723)       
1 32395U 07065C   25172.59820527  .00000113  00000+0  00000+0 0  9998
2 32395  64.3245 204.1487 0016625 353.2715  87.7637  2.13100169136045
COSMOS 2456 (730)       
1 36111U 09070A   25172.11631655 -.00000036  00000+0  00000+0 0  9991
2 36111  64.7991  83.3097 0004558 327.2143 126.2300  2.13103653120735
COSMOS 2457 (733)       
1 36112U 09070B   25172.47732707 -.00000039  00000+0  00000+0 0  9994
2 36112  64.7844  83.1484 0002929 138.0478   3.1031  2.13101149120743
COSMOS 2460 (732)       
1 36402U 10007C   25171.12128686 -.00000046  00000+0  00000+0 0  9992
2 36402  65.6247 326.6956 0001831 105.5227  72.1887  2.13106149119011
COSMOS 2476 (744)       
1 37867U 11064A   25171.86789127 -.00000032  00000+0  00000+0 0  9991
2 37867  65.0643  85.0889 0022453 238.7798 293.8943  2.13101476106117
COSMOS 2477 (745)       
1 37868U 11064B   25172.56920338 -.00000037  00000+0  00000+0 0  9996
2 37868  65.0716  85.1411 0019581 240.0377 290.6692  2.13102990106071
COSMOS 2475 (743)       
1 37869U 11064C   25170.27553400 -.00000016  00000+0  00000+0 0  9992
2 37869  65.0775  85.2370 0025110 254.2462 273.5674  2.13101835106032
COSMOS 2485 (747)       
1 39155U 13019A   25172.05096140 -.00000033  00000+0  00000+0 0  9994
2 39155  65.2185  85.7428 0022824 234.4594 125.3403  2.13104539 94587
COSMOS 2492 (754)       
1 39620U 14012A   25172.47757928 -.00000057  00000+0  00000+0 0  9995
2 39620  65.5032 326.1731 0010716 325.0202  34.9046  2.13103119 87557
COSMOS 2500 (755)       
1 40001U 14032A   25169.36728342 -.00000036  00000+0  00000+0 0  9991
2 40001  65.4410 326.0544 0006936 185.7201 174.2740  2.13105949 85708
COSMOS 2501 (702K)      
1 40315U 14075A   25171.03250212  .00000106  00000+0  00000+0 0  9996
2 40315  63.6157 202.9104 0021775 211.6484 148.2910  2.13101353 82137
COSMOS 2514 (751)       
1 41330U 16008A   25172.42392150 -.00000057  00000+0  00000+0 0  9990
2 41330  65.2311 325.3667 0010688 199.4387 160.5157  2.13102523 72932
COSMOS 2522 (752)       
1 42939U 17055A   25172.26281665  .00000112  00000+0  00000+0 0  9990
2 42939  64.0774 204.1708 0010517 240.6484 119.3214  2.13101832 60289
COSMOS 2527 (756)       
1 43508U 18053A   25172.22294343 -.00000034  00000+0  00000+0 0  9999
2 43508  65.3772  85.9659 0007299 238.3029 121.6380  2.13102138 54582
COSMOS 2529 (757)       
1 43687U 18086A   25172.32093340  .00000112  00000+0  00000+0 0  9994
2 43687  64.2931 204.7811 0011786 257.6989 102.2448  2.13101996 51590
COSMOS 2534 (758)       
1 44299U 19030A   25172.16366921  .00000111  00000+0  00000+0 0  9993
2 44299  64.3665 204.7745 0013393 276.8943  96.7590  2.13102129 47230
COSMOS 2544 (759)       
1 44850U 19088A   25172.16733388 -.00000033  00000+0  00000+0 0  9998
2 44850  65.3645  85.7977 0013066 259.5777 100.2875  2.13101957 43024
COSMOS 2545 (760)       
1 45358U 20018A   25172.36373293 -.00000058  00000+0  00000+0 0  9991
2 45358  64.5685 325.0778 0008250 233.3172 126.6023  2.13102448 40974
COSMOS 2547 (705K)      
1 46805U 20075A   25171.14232071  .00000106  00000+0  00000+0 0  9998
2 46805  64.5966 204.5600 0009064 240.5503 119.4319  2.13100196 36196
COSMOS 2557 (706K)      
1 52984U 22075A   25171.77823702 -.00000053  00000+0  00000+0 0  9993
2 52984  64.5053 327.1949 0010582 276.9741  82.9040  2.13102032 23013
COSMOS 2559 (707K)      
1 54031U 22130A   25172.06623538 -.00000056  00000+0  00000+0 0  9991
2 54031  64.4776 327.2801 0012091 177.5240 182.4800  2.13101453 20994
COSMOS 2564 (761)       
1 54377U 22161A   25171.91110830  .00000111  00000+0  00000+0 0  9998
2 54377  64.7383 204.7054 0011803 224.7053 135.2742  2.13101989 19937
COSMOS 2569 (703K)      
1 57517U 23114A   25171.92562553 -.00000033  00000+0  00000+0 0  9994
2 57517  65.0964  84.8226 0010972 297.9571  61.9460  2.13103598 14560
COSMOS 2584 (704K)      
1 63130U 25042A   25170.40431957 -.00000018  00000+0  00000+0 0  9992
2 63130  64.8773  85.1547 0006140 226.0458 133.9212  2.13103819  2313
